[
    {
        "Altitude(m)": 707287.5235952697,
        "Argument of Periapsis(deg)": 0.011390121186627068,
        "Eccentricity": 0.0,
        "Inclination(deg)": 45.0,
        "Latitude(deg)": 45.055542512294885,
        "Longitude(deg)": -176.01831563232253,
        "Mean Anomaly(deg)": 93.35141664748083,
        "RAAN(deg)": 189.9892480585418,
        "Satellite Name": "Constellation 1 841",
        "Satellite Number": 841,
        "Semi-Major Axis(m)": 7083131.272910544,
        "Time(s)": 190
    },
    {
        "Altitude(m)": 707286.7159616684,
        "Argument of Periapsis(deg)": 0.011450069192872472,
        "Eccentricity": 0.0,
        "Inclination(deg)": 45.0,
        "Latitude(deg)": 45.05194465502284,
        "Longitude(deg)": -175.9368313924921,
        "Mean Anomaly(deg)": 93.41211778773074,
        "RAAN(deg)": 189.98919146937624,
        "Satellite Name": "Constellation 1 841",
        "Satellite Number": 841,
        "Semi-Major Axis(m)": 7083131.272910544,
        "Time(s)": 191
    },
    {
        "Altitude(m)": 707285.893824083,
        "Argument of Periapsis(deg)": 0.01151001719911788,
        "Eccentricity": 0.0,
        "Inclination(deg)": 45.0,
        "Latitude(deg)": 45.04828268268471,
        "Longitude(deg)": -175.85535797324468,
        "Mean Anomaly(deg)": 93.47281892798063,
        "RAAN(deg)": 189.98913488021066,
        "Satellite Name": "Constellation 1 841",
        "Satellite Number": 841,
        "Semi-Major Axis(m)": 7083131.272910544,
        "Time(s)": 192
    },
    {
        "Altitude(m)": 707285.0571873487,
        "Argument of Periapsis(deg)": 0.011569965205363285,
        "Eccentricity": 0.0,
        "Inclination(deg)": 45.0,
        "Latitude(deg)": 45.04455661150321,
        "Longitude(deg)": -175.77389573095667,
        "Mean Anomaly(deg)": 93.53352006823056,
        "RAAN(deg)": 189.9890782910451,
        "Satellite Name": "Constellation 1 841",
        "Satellite Number": 841,
        "Semi-Major Axis(m)": 7083131.272910544,
        "Time(s)": 193
    },
    {
        "Altitude(m)": 707284.2060563976,
        "Argument of Periapsis(deg)": 0.01162991321160869,
        "Eccentricity": 0.0,
        "Inclination(deg)": 45.0,
        "Latitude(deg)": 45.04076645797885,
        "Longitude(deg)": -175.6924445175177,
        "Mean Anomaly(deg)": 93.59422120848043,
        "RAAN(deg)": 189.98902170187955,
        "Satellite Name": "Constellation 1 841",
        "Satellite Number": 841,
        "Semi-Major Axis(m)": 7083131.272910544,
        "Time(s)": 194
    },
    {
        "Altitude(m)": 707283.3404362409,
        "Argument of Periapsis(deg)": 0.011689861217854095,
        "Eccentricity": 0.0,
        "Inclination(deg)": 45.0,
        "Latitude(deg)": 45.036912238891276,
        "Longitude(deg)": -175.6110046889096,
        "Mean Anomaly(deg)": 93.65492234873031,
        "RAAN(deg)": 189.98896511271394,
        "Satellite Name": "Constellation 1 841",
        "Satellite Number": 841,
        "Semi-Major Axis(m)": 7083131.272910544,
        "Time(s)": 195
    },
    {
        "Altitude(m)": 707282.4603319771,
        "Argument of Periapsis(deg)": 0.0117498092240995,
        "Eccentricity": 0.0,
        "Inclination(deg)": 45.0,
        "Latitude(deg)": 45.03299397129774,
        "Longitude(deg)": -175.52957643281482,
        "Mean Anomaly(deg)": 93.71562348898023,
        "RAAN(deg)": 189.9889085235484,
        "Satellite Name": "Constellation 1 841",
        "Satellite Number": 841,
        "Semi-Major Axis(m)": 7083131.272910544,
        "Time(s)": 196
    },
    {
        "Altitude(m)": 707281.5657487832,
        "Argument of Periapsis(deg)": 0.011809757230344905,
        "Eccentricity": 0.0,
        "Inclination(deg)": 45.0,
        "Latitude(deg)": 45.0290116725332,
        "Longitude(deg)": -175.44815993671065,
        "Mean Anomaly(deg)": 93.77632462923012,
        "RAAN(deg)": 189.9888519343828,
        "Satellite Name": "Constellation 1 841",
        "Satellite Number": 841,
        "Semi-Major Axis(m)": 7083131.272910544,
        "Time(s)": 197
    },
    {
        "Altitude(m)": 707280.6566919277,
        "Argument of Periapsis(deg)": 0.011869705236590313,
        "Eccentricity": 0.0,
        "Inclination(deg)": 45.0,
        "Latitude(deg)": 45.02496536020969,
        "Longitude(deg)": -175.3667553878652,
        "Mean Anomaly(deg)": 93.83702576948005,
        "RAAN(deg)": 189.98879534521726,
        "Satellite Name": "Constellation 1 841",
        "Satellite Number": 841,
        "Semi-Major Axis(m)": 7083131.272910544,
        "Time(s)": 198
    },
    {
        "Altitude(m)": 707279.7331667669,
        "Argument of Periapsis(deg)": 0.011929653242835719,
        "Eccentricity": 0.0,
        "Inclination(deg)": 45.0,
        "Latitude(deg)": 45.02085505221616,
        "Longitude(deg)": -175.28536297333522,
        "Mean Anomaly(deg)": 93.89772690972993,
        "RAAN(deg)": 189.98873875605165,
        "Satellite Name": "Constellation 1 841",
        "Satellite Number": 841,
        "Semi-Major Axis(m)": 7083131.272910544,
        "Time(s)": 199
    }
]